1 39166U 13023A   19044.82305048 -.00000048  00000-0  00000+0 0  9994
2 39166  56.0627  16.1444 0065860  22.7639 337.5313  2.00568460 42111
1 39166U 13023A   19045.32162040 -.00000049  00000-0  00000-0 0  9995
2 39166  56.0628  16.1246 0065902  22.7792 337.5155  2.00568434 42136
1 39166U 13023A   19045.82018944 -.00000051  00000-0  00000+0 0  9995
2 39166  56.0628  16.1049 0065918  22.7857 337.5080  2.00568422 42130
1 39166U 13023A   19046.81732725 -.00000055  00000-0  00000+0 0  9999
2 39166  56.0629  16.0654 0065981  22.8140 337.4773  2.00568389 42150
1 39166U 13023A   19048.31303245 -.00000062  00000-0  00000-0 0  9996
2 39166  56.0631  16.0062 0066069  22.8549 337.4317  2.00568357 42190
1 39166U 13023A   19049.31016978 -.00000067  00000-0  00000+0 0  9995
2 39166  56.0633  15.9668 0066124  22.8790 337.4048  2.00568344 42201
1 39166U 13023A   19049.31016982 -.00000067  00000-0  00000+0 0  9990
2 39166  56.0633  15.9668 0066112  22.8762 337.4076  2.00568345 42209
1 39166U 13023A   19050.30730843 -.00000071  00000-0  00000+0 0  9995
2 39166  56.0634  15.9273 0066184  22.9072 337.3746  2.00568334 42229
1 39166U 13023A   19051.30444900 -.00000075  00000-0  00000+0 0  9996
2 39166  56.0635  15.8879 0066241  22.9362 337.3450  2.00568332 42249
1 39166U 13023A   19052.30159161 -.00000077  00000-0  00000+0 0  9991
2 39166  56.0637  15.8484 0066289  22.9678 337.3140  2.00568332 42263
1 39166U 13023A   19053.29873534 -.00000079  00000-0  00000-0 0  9990
2 39166  56.0638  15.8090 0066378  23.0024 337.2812  2.00568348 42298
1 39166U 13023A   19054.29587967 -.00000080  00000-0  00000+0 0  9994
2 39166  56.0639  15.7695 0066431  23.0360 337.2497  2.00568362 42309
1 39166U 13023A   19054.79445189 -.00000081  00000-0  00000-0 0  9990
2 39166  56.0640  15.7498 0066441  23.0467 337.2399  2.00568366 42328
1 39166U 13023A   19055.79159606 -.00000083  00000-0  00000+0 0  9998
2 39166  56.0641  15.7104 0066520  23.0840 337.2046  2.00568392 42335
1 39166U 13023A   19055.79159607 -.00000083  00000-0  00000-0 0  9990
2 39166  56.0641  15.7104 0066502  23.0796 337.2089  2.00568385 42345
1 39166U 13023A   19057.28731067 -.00000087  00000-0  00000-0 0  9996
2 39166  56.0642  15.6513 0066611  23.1354 337.1549  2.00568429 42373
1 39166U 13023A   19057.28731069 -.00000087  00000-0  00000+0 0  9997
2 39166  56.0642  15.6513 0066607  23.1361 337.1541  2.00568428 42366
1 39166U 13023A   19058.28445231 -.00000089  00000-0  00000-0 0  9994
2 39166  56.0643  15.6118 0066666  23.1664 337.1240  2.00568452 42395
1 39166U 13023A   19058.28445233 -.00000089  00000-0  00000+0 0  9995
2 39166  56.0643  15.6118 0066657  23.1646 337.1257  2.00568450 42380
1 39166U 13023A   19059.28159296 -.00000092  00000-0  00000+0 0  9991
2 39166  56.0644  15.5724 0066711  23.1899 337.1000  2.00568475 42400
1 39166U 13023A   19059.78016331 -.00000093  00000-0  00000+0 0  9999
2 39166  56.0645  15.5527 0066742  23.2061 337.0834  2.00568483 42412
1 39166U 13023A   19059.78016331 -.00000093  00000-0  00000-0 0  9990
2 39166  56.0645  15.5527 0066742  23.2061 337.0834  2.00568483 42423
1 39166U 13023A   19061.27587424 -.00000095  00000-0  00000-0 0  9995
2 39166  56.0646  15.4936 0066831  23.2486 337.0399  2.00568504 42450
1 39166U 13023A   19062.27301540 -.00000094  00000-0  00000+0 0  9997
2 39166  56.0647  15.4542 0066877  23.2818 337.0065  2.00568512 42463
1 39166U 13023A   19062.27301543 -.00000094  00000-0  00000+0 0  9990
2 39166  56.0647  15.4542 0066887  23.2844 337.0039  2.00568512 42464
1 39166U 13023A   19062.27301570 -.00000094  00000-0  00000-0 0  9991
2 39166  56.0647  15.4542 0066902  23.2841 337.0043  2.00568512 42475
1 39166U 13023A   19063.27015753 -.00000091  00000-0  00000+0 0  9993
2 39166  56.0648  15.4148 0066949  23.3176 336.9711  2.00568511 42481
1 39166U 13023A   19064.26730069 -.00000088  00000-0  00000+0 0  9993
2 39166  56.0649  15.3755 0067007  23.3565 336.9335  2.00568506 42502
1 39166U 13023A   19065.26444503 -.00000083  00000-0  00000+0 0  9994
2 39166  56.0649  15.3361 0067061  23.3906 336.9013  2.00568492 42523
1 39166U 13023A   19066.26159024 -.00000077  00000-0  00000+0 0  9999
2 39166  56.0650  15.2967 0067119  23.4189 336.8757  2.00568465 42540
1 39166U 13023A   19066.76016337 -.00000075  00000-0  00000+0 0  9991
2 39166  56.0650  15.2770 0067155  23.4348 336.8614  2.00568447 42552
1 39166U 13023A   19067.25873647 -.00000072  00000-0  00000-0 0  9999
2 39166  56.0651  15.2573 0067181  23.4485 336.8493  2.00568430 42574
1 39166U 13023A   19068.25588276 -.00000067  00000-0  00000+0 0  9994
2 39166  56.0652  15.2179 0067218  23.4763 336.8249  2.00568403 42587
1 39166U 13023A   19068.25588276 -.00000067  00000-0  00000-0 0  9995
2 39166  56.0652  15.2179 0067218  23.4763 336.8249  2.00568403 42598
1 39166U 13023A   19069.25302932 -.00000063  00000-0  00000-0 0  9995
2 39166  56.0653  15.1785 0067275  23.5076 336.7970  2.00568360 42617
1 39166U 13023A   19069.25302937 -.00000063  00000-0  00000+0 0  9999
2 39166  56.0653  15.1785 0067272  23.5075 336.7971  2.00568362 42605
1 39166U 13023A   19070.25017531 -.00000061  00000-0  00000+0 0  9992
2 39166  56.0653  15.1391 0067324  23.5408 336.7667  2.00568321 42625
1 39166U 13023A   19070.74874793 -.00000060  00000-0  00000+0 0  9996
2 39166  56.0654  15.1194 0067350  23.5587 336.7500  2.00568301 42639
1 39166U 13023A   19071.24732034 -.00000060  00000-0  00000-0 0  9994
2 39166  56.0654  15.0997 0067390  23.5803 336.7293  2.00568269 42658
1 39166U 13023A   19072.24446340 -.00000060  00000-0  00000+0 0  9996
2 39166  56.0655  15.0603 0067428  23.6096 336.7008  2.00568240 42664
1 39166U 13023A   19072.74303453 -.00000061  00000-0  00000-0 0  9990
2 39166  56.0655  15.0406 0067440  23.6274 336.6829  2.00568229 42686
1 39166U 13023A   19073.24160516 -.00000063  00000-0  00000-0 0  9999
2 39166  56.0655  15.0208 0067483  23.6485 336.6615  2.00568201 42691
1 39166U 13023A   19073.24160519 -.00000063  00000-0  00000+0 0  9991
2 39166  56.0655  15.0208 0067480  23.6471 336.6629  2.00568203 42689
1 39166U 13023A   19074.23874564 -.00000066  00000-0  00000-0 0  9997
2 39166  56.0656  14.9814 0067531  23.6855 336.6232  2.00568170 42711
1 39166U 13023A   19075.23588536 -.00000071  00000-0  00000+0 0  9994
2 39166  56.0657  14.9419 0067581  23.7227 336.5841  2.00568145 42720
1 39166U 13023A   19076.23302513 -.00000076  00000-0  00000+0 0  9999
2 39166  56.0658  14.9024 0067630  23.7576 336.5475  2.00568126 42749
1 39166U 13023A   19076.73159567 -.00000078  00000-0  00000-0 0  9996
2 39166  56.0658  14.8827 0067644  23.7769 336.5275  2.00568120 42762
1 39166U 13023A   19077.23016621 -.00000080  00000-0  00000-0 0  9998
2 39166  56.0658  14.8630 0067690  23.8038 336.5003  2.00568111 42775
1 39166U 13023A   19077.23016632 -.00000080  00000-0  00000+0 0  9999
2 39166  56.0658  14.8630 0067689  23.8027 336.5014  2.00568113 42764
1 39166U 13023A   19078.22730881 -.00000084  00000-0  00000+0 0  9992
2 39166  56.0659  14.8235 0067736  23.8384 336.4657  2.00568106 42781
1 39166U 13023A   19079.72302603 -.00000087  00000-0  00000+0 0  9998
2 39166  56.0660  14.7643 0067817  23.9000 336.4065  2.00568109 42811
1 39166U 13023A   19080.72017211 -.00000089  00000-0  00000+0 0  9990
2 39166  56.0661  14.7249 0067860  23.9300 336.3792  2.00568122 42838
1 39166U 13023A   19082.21589259 -.00000092  00000-0  00000+0 0  9996
2 39166  56.0663  14.6657 0067922  23.9818 336.3319  2.00568142 42865
1 39166U 13023A   19082.21589259 -.00000092  00000-0  00000-0 0  9997
2 39166  56.0663  14.6657 0067922  23.9818 336.3319  2.00568142 42876
1 39166U 13023A   19083.21303916 -.00000094  00000-0  00000+0 0  9993
2 39166  56.0663  14.6263 0067982  24.0274 336.2892  2.00568165 42884
1 39166U 13023A   19083.21303916 -.00000094  00000-0  00000-0 0  9994
2 39166  56.0663  14.6263 0067982  24.0274 336.2892  2.00568165 42895
1 39166U 13023A   19084.21018472 -.00000096  00000-0  00000+0 0  9996
2 39166  56.0664  14.5869 0068029  24.0661 336.2526  2.00568188 42901
1 39166U 13023A   19084.21018472 -.00000096  00000-0  00000-0 0  9997
2 39166  56.0664  14.5869 0068029  24.0661 336.2526  2.00568188 42912
1 39166U 13023A   19086.70304408 -.00000103  00000-0  00000+0 0  9998
2 39166  56.0665  14.4883 0068146  24.1575 336.1632  2.00568247 42950
1 39166U 13023A   19088.19875835 -.00000105  00000-0  00000+0 0  9992
2 39166  56.0666  14.4292 0068210  24.2116 336.1094  2.00568273 42983
1 39166U 13023A   19089.19590195 -.00000105  00000-0  00000+0 0  9996
2 39166  56.0667  14.3898 0068275  24.2675 336.0543  2.00568288 43004
1 39166U 13023A   19090.19304626 -.00000103  00000-0  00000+0 0  9998
2 39166  56.0667  14.3504 0068324  24.3130 336.0100  2.00568293 43027
1 39166U 13023A   19092.18733761 -.00000095  00000-0  00000+0 0  9995
2 39166  56.0668  14.2716 0068422  24.3977 335.9298  2.00568286 43062
1 39166U 13023A   19092.18733761 -.00000095  00000-0  00000-0 0  9996
2 39166  56.0668  14.2716 0068422  24.3977 335.9298  2.00568286 43062
1 39166U 13023A   19093.18448467 -.00000089  00000-0  00000+0 0  9995
2 39166  56.0669  14.2322 0068455  24.4314 335.8993  2.00568272 43086
1 39166U 13023A   19094.68020714 -.00000080  00000-0  00000+0 0  9993
2 39166  56.0670  14.1730 0068524  24.4902 335.8466  2.00568232 43115
1 39166U 13023A   19096.17593008 -.00000073  00000-0  00000+0 0  9992
2 39166  56.0670  14.1138 0068581  24.5447 335.7984  2.00568184 43148
1 39166U 13023A   19096.67450444 -.00000071  00000-0  00000+0 0  9991
2 39166  56.0671  14.0941 0068603  24.5626 335.7825  2.00568158 43150
1 39166U 13023A   19099.16737138 -.00000067  00000-0  00000+0 0  9991
2 39166  56.0672  13.9955 0068708  24.6539 335.6979  2.00568057 43207
1 39166U 13023A   19100.16451539 -.00000069  00000-0  00000+0 0  9994
2 39166  56.0673  13.9562 0068742  24.6850 335.6673  2.00568019 43227
